0 COSMOS 1275 DEB
1 13476U 81053FW  22026.82842980  .00000607  00000-0  42692-3 0  9990
2 13476  82.8070 337.8976 0051343 191.4256 198.0394 13.96035850  5284
0 COSMOS 1275 DEB
1 13477U 81053FX  22026.80543236  .00001930  00000-0  93309-3 0  9992
2 13477  83.0010 140.9871 0070756 160.5009 199.8903 14.16795820 16922
0 COSMOS 1275 DEB
1 13478U 81053FY  22026.78904860  .00000407  00000-0  37452-3 0  9999
2 13478  82.8676 290.8111 0094969 232.8348 186.2119 13.78658187988176
0 COSMOS 1275 DEB
1 13479U 81053FZ  22026.71128572  .00003011  00000-0  48733-3 0  9999
2 13479  82.8927 266.7199 0031595 290.3887  69.3929 14.70680768 76370
0 COSMOS 1275 DEB
1 13480U 81053GA  22026.80120968  .00000739  00000-0  55700-3 0  9998
2 13480  82.9665 311.6558 0073516 345.4339  66.5405 13.91776687998834
0 COSMOS 1275 DEB
1 13481U 81053GB  22026.71390814  .00001937  00000-0  68737-3 0  9993
2 13481  82.9981 276.7804 0041118  77.0573 283.5203 14.33562974 34042
0 COSMOS 1275 DEB
1 13482U 81053GC  22026.95034011  .00001728  00000-0  27544-3 0  9993
2 13482  82.8904   0.8981 0035323 246.5895 113.1598 14.71036850 44384
0 COSMOS 1275 DEB
1 13483U 81053GD  22026.79843784  .00000364  00000-0  18777-3 0  9994
2 13483  82.9261 282.5055 0008205 205.6969 221.2373 14.12563148 20476
0 COSMOS 1275 DEB
1 13484U 81053GE  22026.82117250  .00000092  00000-0  55256-4 0  9993
2 13484  82.9220 148.9629 0027078 313.6010 211.2116 13.96305153  1744
0 COSMOS 1275 DEB
1 13485U 81053GF  22026.82179066  .00000116  00000-0  96070-4 0  9993
2 13485  82.9414 281.2564 0067541 135.5916 299.4145 13.78910926992967
0 COSMOS 1275 DEB
1 13486U 81053GG  22026.70914252  .00002516  00000-0  76389-3 0  9991
2 13486  82.8917   0.6344 0011187  40.2296 319.9723 14.41846537 37947
0 COSMOS 1275 DEB
1 13487U 81053GH  22026.82172633  .00002425  00000-0  94749-3 0  9993
2 13487  82.9659  51.8121 0058587 266.4185 214.8930 14.28351188 16631
0 COSMOS 1275 DEB
1 13488U 81053GJ  22026.71410133  .00000250  00000-0  34884-3 0  9990
2 13488  83.0862 116.5685 0199382  70.5608  80.1391 13.45651695936626
0 COSMOS 1275 DEB
1 13489U 81053GK  22026.83500948  .00000671  00000-0  10319-2 0  9991
2 13489  83.1397 307.6957 0241936  85.8752 335.6448 13.38964405927357
0 COSMOS 1275 DEB
1 13490U 81053GL  22026.60726289  .00000194  00000-0  18146-3 0  9993
2 13490  82.8333 235.7179 0067406 244.9586 181.5728 13.76202566988646
0 COSMOS 926 DEB
1 13491U 77062D   22026.46547227  .00000069  00000-0  57472-4 0  9993
2 13491  82.9292  98.2006 0018758 198.0665 175.0125 13.73795885 32744
0 KIKU 4 (ETS 3)
1 13492U 82087A   22026.81290604 -.00000076  00000-0  45820-4 0  9993
2 13492  44.6166 301.2205 0011974 320.3135  80.8803 13.71023319972690
0 N-1 R/B
1 13493U 82087B   22026.47814133 -.00000078  00000-0  47486-4 0  9997
2 13493  44.6248  48.5767 0173785 327.6326 192.5548 13.44565698935616
0 SL-8 DEB *
1 13497U 78063C   22026.80272205  .00000623  00000-0  14785-3 0  9995
2 13497  74.0547 171.3027 0011637  58.4210  62.2575 14.56013596 95722
0 SL-8 DEB *
1 13498U 81041C   22026.77732422  .00000720  00000-0  15982-3 0  9992
2 13498  74.0194 142.3512 0011274 275.4931 237.5495 14.58897698166470
0 SL-8 DEB *
1 13499U 76069D   22026.73165444  .00000524  00000-0  13341-3 0  9996
2 13499  74.0566 129.3150 0015274  52.5157  70.4358 14.53082368162434
0 SL-8 DEB *
1 13500U 78019C   22026.81897793  .00000749  00000-0  14490-3 0  9999
2 13500  74.0609 302.6482 0008281 114.8050 245.3980 14.65181952390791
0 COSMOS 839 DEB
1 13501U 76067BB  22026.42824021  .00000178  00000-0  91576-3 0  9998
2 13501  66.0362  35.8373 0618501  86.5953  26.4960 12.38360502842372
0 THOR ABLESTAR DEB *
1 13502U 61015KT  22027.12291951  .00000930  00000-0  10437-2 0  9996
2 13502  66.4612  31.2553 0281340 113.9987 316.4207 13.59451771931990
0 COSMOS 970 DEB
1 13503U 77121BA  22026.95577449  .00000047  00000-0  17847-3 0  9993
2 13503  66.4708 285.3824 0087366 317.7346 133.0387 13.51392552940619
0 COSMOS 970 DEB
1 13504U 77121BB  22026.58455355 -.00000032  00000-0  40817-4 0  9993
2 13504  66.1164  76.7064 0210017 291.5940 230.8104 13.77101594205362
0 COSMOS 970 DEB
1 13505U 77121BC  22026.56462184  .00000436  00000-0  73061-3 0  9993
2 13505  65.3582  62.3446 0031230 335.4216 187.0615 13.56337638474360
0 COSMOS 886 DEB
1 13507U 76126BK  22026.80063830 -.00000060  00000-0 -53954-4 0  9996
2 13507  65.7551 180.3283 0870533  97.6799  15.7392 11.92071743769773
0 N-1 DEB
1 13510U 82087C   22026.73418891  .00000072  00000-0  24195-3 0  9991
2 13510  44.5751 137.5175 0165691  46.6850 103.1130 13.56394441393491
0 THOR ABLESTAR DEB
1 13511U 61015KU  22026.82364609  .00000090  00000-0  19141-3 0  9992
2 13511  65.8415 167.8658 0128860 236.7988 275.3448 13.66634486 72044
0 THOR ABLESTAR DEB
1 13512U 61015KV  22026.56806574  .00001224  00000-0  66083-3 0  9993
2 13512  65.4860  71.3599 0057847 308.0651 204.6762 14.15573356113452
0 THOR ABLESTAR DEB
1 13513U 61015KW  22026.73615934  .00000403  00000-0  41202-3 0  9995
2 13513  65.6803 298.6267 0106613 250.4521 137.1726 13.84933965 96901
0 THOR ABLESTAR DEB
1 13514U 61015KX  22026.62033660  .00000180  00000-0  32431-3 0  9990
2 13514  66.7158  95.3830 0250210 328.0344 104.8293 13.49708082 48170
0 COSMOS 839 DEB
1 13515U 76067BC  22026.79543484  .00000525  00000-0  20089-2 0  9990
2 13515  65.8980 278.4926 0656658  43.0880  16.1668 12.41225692881289
0 COSMOS 839 DEB
1 13516U 76067BD  22026.59046417 -.00000039  00000-0  58931-4 0  9993
2 13516  65.6611 254.1575 0737935 312.8133  69.0533 12.32349694326052
0 SL-8 DEB
1 13517U 65020FF  22026.23605858  .00000733  00000-0  68381-3 0  9991
2 13517  55.5737  97.1828 0549501 274.0485 117.6739 13.36939727921354
0 THORAD AGENA D DEB
1 13518U 70025NR  22027.02711073  .00000699  00000-0  70318-3 0  9992
2 13518 100.0676  52.0487 0002173   0.9431  53.9017 13.81525771 29259
0 DELTA 1 DEB
1 13524U 73086GM  22026.18500545 -.00000075  00000-0 -16786-3 0  9994
2 13524 102.8233 265.4559 0046080  85.3108  67.9400 12.47803263877278
0 DELTA 1 DEB
1 13525U 73086GN  22026.85153139 -.00000090  00000-0 -29288-3 0  9990
2 13525 101.7254 356.0341 0078529 170.5208 246.5114 12.50894236896707
0 THORAD DELTA 1 DEB
1 13527U 74089EN  22026.52748719 -.00001806  00000-0 -10704-1 0  9991
2 13527 102.8899 253.0331 0344554 227.9526 200.8034 12.39932762871920
0 THORAD DELTA 1 DEB
1 13528U 74089EP  22026.72350694  .00000344  00000-0  18121-2 0  9991
2 13528 103.1195 132.0245 0083499 220.8961 302.2279 12.76942122925062
0 DELTA 1 DEB
1 13529U 76077EB  22026.70560744  .00000092  00000-0  19440-2 0  9993
2 13529 101.8730 316.2790 0381010  90.1501 337.4681 11.65892311755106
0 DELTA 1 DEB
1 13530U 76077EC  22026.81644007 -.00000156  00000-0 -84926-3 0  9997
2 13530 102.3467 103.2809 0117763  39.2104  81.8423 12.35949769864395
0 DELTA 1 DEB
1 13531U 76077ED  22026.85109734 -.00000113  00000-0 -67220-3 0  9996
2 13531 102.5279 354.4953 0141523  56.1782 359.8221 12.17079656761119
0 DELTA 1 DEB
1 13532U 76077EE  22027.10451470 -.00000004  00000-0  42256-3 0  9993
2 13532 102.1962  73.3448 0287790 187.9929 200.0103 11.93874935770611
0 DELTA 1 DEB
1 13533U 76077EF  22026.93893392 -.00000005  00000-0  43219-3 0  9998
2 13533 101.8362 190.2991 0357274  41.3430 106.9594 11.74318936847367
0 DELTA 1 DEB
1 13534U 76077EG  22026.38566980  .00000010  00000-0  69675-3 0  9997
2 13534 101.8233   1.2529 0398479 299.9874 220.5523 11.68159939838160
0 DELTA 1 DEB
1 13535U 76077EH  22026.96529394 -.00000028  00000-0  11340-3 0  9996
2 13535 101.6549  45.0198 0023176  44.7974  22.1827 12.39039410950341
0 DELTA 1 DEB
1 13536U 76077EJ  22026.82579992  .00000045  00000-0  10641-2 0  9991
2 13536 101.7882 147.9810 0422032 196.6022 319.4101 11.75794664869750
0 DELTA 1 DEB
1 13537U 76077EK  22026.85422594 -.00000010  00000-0  30546-3 0  9990
2 13537 102.3319 356.1522 0075197 263.3189 151.6274 12.27093555936705
0 DELTA 1 DEB
1 13538U 76077EL  22027.05395796 -.00000003  00000-0  36247-3 0  9993
2 13538 102.0693  67.0365 0107763  92.9447 324.9132 12.21821037850755
0 DELTA 1 DEB
1 13539U 76077EM  22026.73372135  .00000012  00000-0  69995-3 0  9995
2 13539 101.8875 324.4508 0408522 144.4613 249.5009 11.65193103767091
0 COSMOS 1408
1 13552U 82092A   22026.90057958  .00003150  00000-0  10140-3 0  9990
2 13552  82.5721  50.7349 0025706 248.3202 111.5301 15.31489313 11060
0 SL-14 R/B
1 13553U 82092B   22026.71973579  .00000154  00000-0  15477-4 0  9996
2 13553  82.5690 104.4254 0020084 235.0544 240.4593 14.84324300105828
0 EKRAN 9
1 13554U 82093A   22025.78225993 -.00000176  00000-0  00000-0 0  9991
2 13554  10.6084 313.8162 0024984 334.7666 205.0517  1.00211160103922
0 DELTA 1 DEB
1 13561U 78026EY  22026.69387912  .00001626  00000-0  75386-3 0  9993
2 13561  99.0281 193.1847 0164544 228.6404 143.9711 14.15298936 68413
0 DELTA 1 DEB
1 13562U 78026EZ  22026.96966203  .00000419  00000-0  17724-3 0  9991
2 13562  98.7479  24.0095 0038246 112.5852 273.8962 14.30357363124537
0 DELTA 1 DEB
1 13563U 78026FA  22026.94514531  .00000146  00000-0  88447-4 0  9991
2 13563  98.8617  20.6870 0043606 234.8524 178.4372 14.20254013 55418
0 DELTA 1 DEB
1 13564U 78026FB  22026.98660295  .00000229  00000-0  19780-3 0  9990
2 13564  98.7334  34.5358 0205943   1.9370  62.5763 13.86264776998809
0 DELTA 1 DEB
1 13565U 78026FC  22026.96636872  .00000295  00000-0  24454-3 0  9990
2 13565  98.7148  39.9923 0068822  58.8339 359.6216 13.94983715 13293
0 DELTA 1 DEB
1 13566U 78026FD  22026.98260652  .00000423  00000-0  17669-3 0  9995
2 13566  98.7559  29.9741 0036635  77.7177 343.3895 14.30977877 56400
0 DELTA 1 DEB
1 13567U 78026FE  22026.77229233  .00001045  00000-0  69237-3 0  9992
2 13567  98.7534 217.1811 0216909 190.0093 236.8469 13.92712639987038
0 DELTA 1 DEB
1 13569U 78026FG  22026.68525638  .00000570  00000-0  32552-3 0  9994
2 13569  99.1643  76.8689 0111339  64.1859  61.5979 14.10632565 56554
0 DELTA 1 DEB
1 13570U 78026FH  22026.96442203  .00000371  00000-0  13721-3 0  9999
2 13570  98.6328  35.7091 0047231 303.8287 112.7014 14.37554881119246
